[{"OBJECT_NAME":"RESOURCESAT-2","OBJECT_ID":"2011-015A","EPOCH":"2026-03-09T22:09:34.808256","MEAN_MOTION":14.21500709,"ECCENTRICITY":0.00064275,"INCLINATION":98.7721,"RA_OF_ASC_NODE":137.0095,"ARG_OF_PERICENTER":138.2632,"MEAN_ANOMALY":221.9036,"EPHEMERIS_TYPE":0,"CLASSIFICATION_TYPE":"U","NORAD_CAT_ID":37387,"ELEMENT_SET_NO":999,"REV_AT_EPOCH":77207,"BSTAR":-7.3226423e-5,"MEAN_MOTION_DOT":-2.05e-6,"MEAN_MOTION_DDOT":0},{"OBJECT_NAME":"COSMOS 1275 DEB","OBJECT_ID":"1981-053JH","EPOCH":"2026-03-09T12:56:07.333728","MEAN_MOTION":14.1212972,"ECCENTRICITY":0.0039539,"INCLINATION":83.1146,"RA_OF_ASC_NODE":350.5358,"ARG_OF_PERICENTER":271.1275,"MEAN_ANOMALY":88.5372,"EPHEMERIS_TYPE":0,"CLASSIFICATION_TYPE":"U","NORAD_CAT_ID":14441,"ELEMENT_SET_NO":999,"REV_AT_EPOCH":25900,"BSTAR":0.0021549,"MEAN_MOTION_DOT":3.997e-5,"MEAN_MOTION_DDOT":0}]
